start=new Date('2021-10-28T00:00:00.000Z').valueOf();
sats=[{"ECCENTRICITY":"0.00013910","OBJECT_NAME":"STARLINK-1896","MEAN_MOTION":"15.06395261","ELEMENT_SET_NO":"999","MEAN_MOTION_DOT":"-0.00001340","INCLINATION":"53.0523","EPHEMERIS_TYPE":"0","TIME_SYSTEM":"UTC","TLE_LINE2":"2 46760  53.0523 294.1979 0001391  81.7941 278.3206 15.06395261 56151","PERIOD":"95.592","OBJECT_ID":"2020-074X","SEMIMAJOR_AXIS":"6925.363","GP_ID":"188273068","FILE":"3187107","PERIAPSIS":"546.265","REV_AT_EPOCH":"5615","BSTAR":"-0.00007111800000","OBJECT_TYPE":"PAYLOAD","EPOCH":"2021-10-27T06:47:13.208928","APOAPSIS":"548.191","TLE_LINE1":"1 46760U 20074X   21300.28279177 -.00001340  00000-0 -71118-4 0  9997","CLASSIFICATION_TYPE":"U","DECAY_DATE":null,"MEAN_ANOMALY":"278.3206","MEAN_MOTION_DDOT":"0.0000000000000","SITE":"AFETR","ARG_OF_PERICENTER":"81.7941","MEAN_ELEMENT_THEORY":"SGP4","LAUNCH_DATE":"2020-10-24","REF_FRAME":"TEME","NORAD_CAT_ID":"46760","CENTER_NAME":"EARTH","RCS_SIZE":"LARGE","RA_OF_ASC_NODE":"294.1979","COUNTRY_CODE":"US"},{"OBJECT_TYPE":"PAYLOAD","EPOCH":"2021-10-27T14:38:10.646016","BSTAR":"0.00064002000000","REV_AT_EPOCH":"5658","PERIAPSIS":"309.110","FILE":"3187469","GP_ID":"188281178","TIME_SYSTEM":"UTC","EPHEMERIS_TYPE":"0","SEMIMAJOR_AXIS":"6688.293","OBJECT_ID":"2020-074Z","PERIOD":"90.726","TLE_LINE2":"2 46762  53.0550 266.1833 0001567 117.6090 242.5094 15.87193333 56580","ELEMENT_SET_NO":"999","MEAN_MOTION_DOT":"0.00173346","MEAN_MOTION":"15.87193333","OBJECT_NAME":"STARLINK-1901","ECCENTRICITY":"0.00015670","INCLINATION":"53.0550","NORAD_CAT_ID":"46762","CENTER_NAME":"EARTH","RA_OF_ASC_NODE":"266.1833","COUNTRY_CODE":"US","RCS_SIZE":"LARGE","ARG_OF_PERICENTER":"117.6090","REF_FRAME":"TEME","LAUNCH_DATE":"2020-10-24","MEAN_ELEMENT_THEORY":"SGP4","MEAN_ANOMALY":"242.5094","CLASSIFICATION_TYPE":"U","DECAY_DATE":null,"SITE":"AFETR","MEAN_MOTION_DDOT":"0.0000000000000","TLE_LINE1":"1 46762U 20074Z   21300.60984544  .00173346  00000-0  64002-3 0  9993","APOAPSIS":"311.206"},{"ARG_OF_PERICENTER":"81.6638","REF_FRAME":"TEME","LAUNCH_DATE":"2020-10-24","MEAN_ELEMENT_THEORY":"SGP4","CENTER_NAME":"EARTH","NORAD_CAT_ID":"46763","RA_OF_ASC_NODE":"292.3611","COUNTRY_CODE":"US","RCS_SIZE":"LARGE","TLE_LINE1":"1 46763U 20074AA  21300.69468208  .00000747  00000-0  69007-4 0  9992","APOAPSIS":"548.181","MEAN_ANOMALY":"278.4509","DECAY_DATE":null,"CLASSIFICATION_TYPE":"U","SITE":"AFETR","MEAN_MOTION_DDOT":"0.0000000000000","FILE":"3187469","GP_ID":"188281173","OBJECT_TYPE":"PAYLOAD","EPOCH":"2021-10-27T16:40:20.531712","BSTAR":"0.00006900700000","PERIAPSIS":"546.251","REV_AT_EPOCH":"5622","ELEMENT_SET_NO":"999","MEAN_MOTION_DOT":"0.00000747","MEAN_MOTION":"15.06399141","OBJECT_NAME":"STARLINK-1902","ECCENTRICITY":"0.00013930","INCLINATION":"53.0553","EPHEMERIS_TYPE":"0","TIME_SYSTEM":"UTC","SEMIMAJOR_AXIS":"6925.351","OBJECT_ID":"2020-074AA","PERIOD":"95.592","TLE_LINE2":"2 46763  53.0553 292.3611 0001393  81.6638 278.4509 15.06399141 56220"},{"MEAN_ELEMENT_THEORY":"SGP4","LAUNCH_DATE":"2020-10-24","REF_FRAME":"TEME","ARG_OF_PERICENTER":"79.9810","RCS_SIZE":"LARGE","RA_OF_ASC_NODE":"294.2203","COUNTRY_CODE":"US","CENTER_NAME":"EARTH","NORAD_CAT_ID":"46764","APOAPSIS":"548.124","TLE_LINE1":"1 46764U 20074AB  21300.27542655  .00000660  00000-0  63187-4 0  9993","MEAN_MOTION_DDOT":"0.0000000000000","SITE":"AFETR","CLASSIFICATION_TYPE":"U","DECAY_DATE":null,"MEAN_ANOMALY":"280.1331","GP_ID":"188272818","FILE":"3187107","PERIAPSIS":"546.264","REV_AT_EPOCH":"5615","BSTAR":"0.00006318700000","EPOCH":"2021-10-27T06:36:36.853920","OBJECT_TYPE":"PAYLOAD","INCLINATION":"53.0535","ECCENTRICITY":"0.00013430","OBJECT_NAME":"STARLINK-1903","MEAN_MOTION":"15.06406473","ELEMENT_SET_NO":"999","MEAN_MOTION_DOT":"0.00000660","TLE_LINE2":"2 46764  53.0535 294.2203 0001343  79.9810 280.1331 15.06406473 56158","PERIOD":"95.592","OBJECT_ID":"2020-074AB","SEMIMAJOR_AXIS":"6925.329","EPHEMERIS_TYPE":"0","TIME_SYSTEM":"UTC"},{"NORAD_CAT_ID":"46765","CENTER_NAME":"EARTH","RCS_SIZE":"LARGE","RA_OF_ASC_NODE":"294.2713","COUNTRY_CODE":"US","ARG_OF_PERICENTER":"77.3928","MEAN_ELEMENT_THEORY":"SGP4","REF_FRAME":"TEME","LAUNCH_DATE":"2020-10-24","MEAN_ANOMALY":"282.7210","DECAY_DATE":null,"CLASSIFICATION_TYPE":"U","SITE":"AFETR","MEAN_MOTION_DDOT":"0.0000000000000","APOAPSIS":"548.141","TLE_LINE1":"1 46765U 20074AC  21300.26436396 -.00000349  00000-0 -45585-5 0  9996","PERIAPSIS":"546.291","REV_AT_EPOCH":"5614","OBJECT_TYPE":"PAYLOAD","EPOCH":"2021-10-27T06:20:41.046144","BSTAR":"-0.00000455850000","GP_ID":"188273568","FILE":"3187107","EPHEMERIS_TYPE":"0","TIME_SYSTEM":"UTC","PERIOD":"95.592","TLE_LINE2":"2 46765  53.0569 294.2713 0001336  77.3928 282.7210 15.06399185 56140","SEMIMAJOR_AXIS":"6925.351","OBJECT_ID":"2020-074AC","OBJECT_NAME":"STARLINK-1906","ECCENTRICITY":"0.00013360","MEAN_MOTION_DOT":"-0.00000349","ELEMENT_SET_NO":"999","MEAN_MOTION":"15.06399185","INCLINATION":"53.0569"},{"PERIOD":"95.591","TLE_LINE2":"2 46766  53.0529 294.3157 0001277  69.0392 291.0733 15.06410446 56155","SEMIMAJOR_AXIS":"6925.317","OBJECT_ID":"2020-074AD","EPHEMERIS_TYPE":"0","TIME_SYSTEM":"UTC","INCLINATION":"53.0529","OBJECT_NAME":"STARLINK-1916","ECCENTRICITY":"0.00012770","ELEMENT_SET_NO":"999","MEAN_MOTION_DOT":"0.00000360","MEAN_MOTION":"15.06410446","REV_AT_EPOCH":"5615","PERIAPSIS":"546.297","EPOCH":"2021-10-27T06:10:03.560160","OBJECT_TYPE":"PAYLOAD","BSTAR":"0.00004306800000","GP_ID":"188272316","FILE":"3187107","SITE":"AFETR","MEAN_MOTION_DDOT":"0.0000000000000","MEAN_ANOMALY":"291.0733","CLASSIFICATION_TYPE":"U","DECAY_DATE":null,"APOAPSIS":"548.066","TLE_LINE1":"1 46766U 20074AD  21300.25698565  .00000360  00000-0  43068-4 0  9998","RCS_SIZE":"LARGE","COUNTRY_CODE":"US","RA_OF_ASC_NODE":"294.3157","NORAD_CAT_ID":"46766","CENTER_NAME":"EARTH","MEAN_ELEMENT_THEORY":"SGP4","REF_FRAME":"TEME","LAUNCH_DATE":"2020-10-24","ARG_OF_PERICENTER":"69.0392"},{"OBJECT_NAME":"STARLINK-1917","ECCENTRICITY":"0.00015570","MEAN_MOTION_DOT":"0.00000373","ELEMENT_SET_NO":"999","MEAN_MOTION":"15.06408329","INCLINATION":"53.0537","EPHEMERIS_TYPE":"0","TIME_SYSTEM":"UTC","PERIOD":"95.592","TLE_LINE2":"2 46767  53.0537 293.8744 0001557  69.9633 290.1524 15.06408329 56165","SEMIMAJOR_AXIS":"6925.323","OBJECT_ID":"2020-074AE","GP_ID":"188272566","FILE":"3187107","REV_AT_EPOCH":"5616","PERIAPSIS":"546.110","OBJECT_TYPE":"PAYLOAD","EPOCH":"2021-10-27T08:28:03.870912","BSTAR":"0.00004391600000","APOAPSIS":"548.266","TLE_LINE1":"1 46767U 20074AE  21300.35282258  .00000373  00000-0  43916-4 0  9994","MEAN_ANOMALY":"290.1524","DECAY_DATE":null,"CLASSIFICATION_TYPE":"U","SITE":"AFETR","MEAN_MOTION_DDOT":"0.0000000000000","ARG_OF_PERICENTER":"69.9633","MEAN_ELEMENT_THEORY":"SGP4","REF_FRAME":"TEME","LAUNCH_DATE":"2020-10-24","NORAD_CAT_ID":"46767","CENTER_NAME":"EARTH","RCS_SIZE":"LARGE","COUNTRY_CODE":"US","RA_OF_ASC_NODE":"293.8744"},{"MEAN_ELEMENT_THEORY":"SGP4","LAUNCH_DATE":"2020-10-24","REF_FRAME":"TEME","ARG_OF_PERICENTER":"77.9941","RCS_SIZE":"LARGE","RA_OF_ASC_NODE":"293.8566","COUNTRY_CODE":"US","CENTER_NAME":"EARTH","NORAD_CAT_ID":"46768","APOAPSIS":"548.288","TLE_LINE1":"1 46768U 20074AF  21300.35651690 -.00000233  00000-0  32747-5 0  9992","MEAN_MOTION_DDOT":"0.0000000000000","SITE":"AFETR","DECAY_DATE":null,"CLASSIFICATION_TYPE":"U","MEAN_ANOMALY":"282.1216","GP_ID":"188273318","FILE":"3187107","PERIAPSIS":"546.205","REV_AT_EPOCH":"5616","BSTAR":"0.00000327470000","OBJECT_TYPE":"PAYLOAD","EPOCH":"2021-10-27T08:33:23.060160","INCLINATION":"53.0554","OBJECT_NAME":"STARLINK-1918","ECCENTRICITY":"0.00015040","MEAN_MOTION":"15.06389312","MEAN_MOTION_DOT":"-0.00000233","ELEMENT_SET_NO":"999","TLE_LINE2":"2 46768  53.0554 293.8566 0001504  77.9941 282.1216 15.06389312 56169","PERIOD":"95.593","OBJECT_ID":"2020-074AF","SEMIMAJOR_AXIS":"6925.381","EPHEMERIS_TYPE":"0","TIME_SYSTEM":"UTC"},{"PERIAPSIS":"546.258","REV_AT_EPOCH":"5616","OBJECT_TYPE":"PAYLOAD","EPOCH":"2021-10-27T08:59:55.388832","BSTAR":"0.00003549000000","GP_ID":"188273069","FILE":"3187107","EPHEMERIS_TYPE":"0","TIME_SYSTEM":"UTC","PERIOD":"95.593","TLE_LINE2":"2 46769  53.0539 293.7886 0001411  69.0013 291.1127 15.06393069 56161","SEMIMAJOR_AXIS":"6925.370","OBJECT_ID":"2020-074AG","ECCENTRICITY":"0.00014110","OBJECT_NAME":"STARLINK-1919","MEAN_MOTION_DOT":"0.00000247","ELEMENT_SET_NO":"999","MEAN_MOTION":"15.06393069","INCLINATION":"53.0539","NORAD_CAT_ID":"46769","CENTER_NAME":"EARTH","RCS_SIZE":"LARGE","RA_OF_ASC_NODE":"293.7886","COUNTRY_CODE":"US","ARG_OF_PERICENTER":"69.0013","MEAN_ELEMENT_THEORY":"SGP4","REF_FRAME":"TEME","LAUNCH_DATE":"2020-10-24","MEAN_ANOMALY":"291.1127","DECAY_DATE":null,"CLASSIFICATION_TYPE":"U","SITE":"AFETR","MEAN_MOTION_DDOT":"0.0000000000000","APOAPSIS":"548.212","TLE_LINE1":"1 46769U 20074AG  21300.37494663  .00000247  00000-0  35490-4 0  9991"},{"APOAPSIS":"548.187","TLE_LINE1":"1 46770U 20074AH  21300.37768584  .00000265  00000-0  36710-4 0  9995","CLASSIFICATION_TYPE":"U","DECAY_DATE":null,"MEAN_ANOMALY":"287.7549","MEAN_MOTION_DDOT":"0.0000000000000","SITE":"AFETR","ARG_OF_PERICENTER":"72.3593","MEAN_ELEMENT_THEORY":"SGP4","LAUNCH_DATE":"2020-10-24","REF_FRAME":"TEME","CENTER_NAME":"EARTH","NORAD_CAT_ID":"46770","RCS_SIZE":"LARGE","RA_OF_ASC_NODE":"293.7637","COUNTRY_CODE":"US","OBJECT_NAME":"STARLINK-1932","ECCENTRICITY":"0.00013940","MEAN_MOTION":"15.06397328","ELEMENT_SET_NO":"999","MEAN_MOTION_DOT":"0.00000265","INCLINATION":"53.0545","EPHEMERIS_TYPE":"0","TIME_SYSTEM":"UTC","TLE_LINE2":"2 46770  53.0545 293.7637 0001394  72.3593 287.7549 15.06397328 56165","PERIOD":"95.592","OBJECT_ID":"2020-074AH","SEMIMAJOR_AXIS":"6925.357","GP_ID":"188271817","FILE":"3187107","REV_AT_EPOCH":"5616","PERIAPSIS":"546.256","BSTAR":"0.00003671000000","OBJECT_TYPE":"PAYLOAD","EPOCH":"2021-10-27T09:03:52.056576"}];
